NORAD_CAT_ID,OBJECT_NAME,OBJECT_TYPE,EPOCH,MEAN_MOTION,ECCENTRICITY,INCLINATION,RA_OF_ASC_NODE,ARG_OF_PERICENTER,MEAN_ANOMALY,BSTAR,MEAN_MOTION_DOT,MEAN_MOTION_DDOT,TLE_LINE0,TLE_LINE1,TLE_LINE2,SEMIMAJOR_AXIS,PERIOD,APOGEE,PERIGEE,DECAYED
51802.0,STARLINK-3557,PAYLOAD,2022-04-06 14:00:01,15.49858449,0.0001245,53.2167,307.657,85.8165,34.4085,0.00056339,0.00031623,0.0,0 STARLINK-3557,1 51802U 22017AL  22096.58334491  .00031623  00000-0  56339-3 0  9998,2 51802  53.2167 307.6570 0001245  85.8165  34.4085 15.49858449  3694,6795.276999999999,92.912,417.98800000000006,416.296,0.0
51802.0,STARLINK-3557,PAYLOAD,2022-04-06 20:00:01,15.49882116,0.0001259,53.2164,306.464,76.0599,359.8369,-0.00016232,-9.651e-05,0.0,0 STARLINK-3557,1 51802U 22017AL  22096.83334491 -.00009651  00000-0 -16232-3 0  9992,2 51802  53.2164 306.4640 0001259  76.0599 359.8369 15.49882116  7538,6795.208000000001,92.91,417.92800000000005,416.217,0.0
51802.0,STARLINK-3557,PAYLOAD,2022-04-06 22:00:00,15.49868324,0.0001277,53.2164,306.066,73.3365,107.7901,0.00042392,0.00023667,0.0,0 STARLINK-3557,1 51802U 22017AL  22096.91667824  .00023667  00000-0  42392-3 0  9997,2 51802  53.2164 306.0660 0001277  73.3365 107.7901 15.49868324  3697,6795.248000000001,92.911,417.981,416.245,0.0
51802.0,STARLINK-3557,PAYLOAD,2022-04-07 14:00:01,15.49900528,0.0001164,53.2164,302.8779,87.4052,215.5437,0.00053018,0.0002977,0.0,0 STARLINK-3557,1 51802U 22017AL  22097.58334491  .00029770  00000-0  53018-3 0  9990,2 51802  53.2164 302.8779 0001164  87.4052 215.5437 15.49900528  3691,6795.154,92.909,417.81,416.228,0.0
51802.0,STARLINK-3557,PAYLOAD,2022-04-07 16:00:00,15.49923724,0.0001158,53.2164,302.4803,83.8185,324.3611,-0.00010916,-6.65e-05,0.0,0 STARLINK-3557,1 51802U 22017AL  22097.66667824 -.00006650  00000-0 -10916-3 0  9992,2 51802  53.2164 302.4803 0001158  83.8185 324.3611 15.49923724  7662,6795.0859999999975,92.908,417.73800000000006,416.164,0.0
51802.0,STARLINK-3557,PAYLOAD,2022-04-07 22:00:00,15.49909524,0.0001247,53.2164,301.2869,74.2495,289.6499,0.0005219,0.00029306,0.0,0 STARLINK-3557,1 51802U 22017AL  22097.91667824  .00029306  00000-0  52190-3 0  9991,2 51802  53.2164 301.2869 0001247  74.2495 289.6499 15.49909524  3674,6795.128000000002,92.909,417.84,416.145,0.0
51802.0,STARLINK-3557,PAYLOAD,2022-04-08 14:00:03,15.49897603,0.0001396999999999,53.2169,298.0985,84.859,41.0795,0.00045148,0.00025266,0.0,0 STARLINK-3557,1 51802U 22017AL  22098.58336806  .00025266  00000-0  45148-3 0  9994,2 51802  53.2169 298.0985 0001397  84.8590  41.0795 15.49897603  3695,6795.1619999999975,92.909,417.977,416.078,0.0
51802.0,STARLINK-3557,PAYLOAD,2022-04-08 20:00:01,15.49925897,0.000137,53.2167,296.9056,74.5535,6.9515,-0.0012605,-0.00071446,0.0,0 STARLINK-3557,1 51802U 22017AL  22098.83334491 -.00071446  00000-0 -12605-2 0  9994,2 51802  53.2167 296.9056 0001370  74.5535   6.9515 15.49925897  7843,6795.08,92.908,417.876,416.014,0.0
51802.0,STARLINK-3557,PAYLOAD,2022-04-08 22:00:00,15.49898496,0.0001351,53.217,296.5076,71.4882,115.2587,-0.0005086,-0.00029223,0.0,0 STARLINK-3557,1 51802U 22017AL  22098.91667824 -.00029223  00000-0 -50860-3 0  9994,2 51802  53.2170 296.5076 0001351  71.4882 115.2587 15.49898496  3668,6795.16,92.909,417.943,416.107,0.0
51802.0,STARLINK-3557,PAYLOAD,2022-04-09 04:00:00,15.49888787,0.0001202,53.2166,295.3119,71.0652,71.3714,-0.00027293,-0.00015912,0.0,0 STARLINK-3557,1 51802U 22017AL  22099.16667824 -.00015912  00000-0 -27293-3 0  9996,2 51802  53.2166 295.3119 0001202  71.0652  71.3714 15.49888787  7899,6795.188,92.91,417.87,416.236,0.0
51802.0,STARLINK-3557,PAYLOAD,2022-04-09 14:00:01,15.49897826,0.000116,53.2169,293.3198,79.8509,228.7121,4.7042e-05,2.221e-05,0.0,0 STARLINK-3557,1 51802U 22017AL  22099.58334491  .00002221  00000-0  47042-4 0  9995,2 51802  53.2169 293.3198 0001160  79.8509 228.7121 15.49897826  3684,6795.1619999999975,92.909,417.815,416.23800000000006,0.0
51802.0,STARLINK-3557,PAYLOAD,2022-04-09 20:00:01,15.49919711,0.0001182,53.2166,292.1266,67.0755,197.1875,-0.0015841,-0.00089446,0.0,0 STARLINK-3557,1 51802U 22017AL  22099.83334491 -.00089446  00000-0 -15841-2 0  9999,2 51802  53.2166 292.1266 0001182  67.0755 197.1875 15.49919711  8004,6795.098000000001,92.908,417.766,416.16,0.0
51802.0,STARLINK-3557,PAYLOAD,2022-04-09 22:00:00,15.49886582,0.0001151,53.2166,291.7287,65.1365,304.3672,-0.00073749,-0.00042085,0.0,0 STARLINK-3557,1 51802U 22017AL  22099.91667824 -.00042085  00000-0 -73749-3 0  9997,2 51802  53.2166 291.7287 0001151  65.1365 304.3672 15.49886582  3689,6795.195,92.91,417.842,416.277,0.0
51802.0,STARLINK-3557,PAYLOAD,2022-04-10 04:00:00,15.49873827,9.86e-05,53.216,290.5328,63.6217,261.5624,-0.00028319,-0.00016483,0.0,0 STARLINK-3557,1 51802U 22017AL  22100.16667824 -.00016483  00000-0 -28319-3 0  9993,2 51802  53.2160 290.5328 0000986  63.6217 261.5624 15.49873827  8055,6795.232,92.911,417.767,416.427,0.0
51802.0,STARLINK-3557,PAYLOAD,2022-04-10 14:00:01,15.49891927,0.000105,53.2167,288.5435,78.3641,52.9219,-0.00017014,-0.00010097,0.0,0 STARLINK-3557,1 51802U 22017AL  22100.58334491 -.00010097  00000-0 -17014-3 0  9995,2 51802  53.2167 288.5435 0001050  78.3641  52.9219 15.49891927  3693,6795.179,92.91,417.757,416.33,0.0
51802.0,STARLINK-3557,PAYLOAD,2022-04-10 20:00:01,15.49983081,0.000106,53.217,287.3534,72.3753,14.6022,-0.010684,-0.00566807,0.0,0 STARLINK-3557,1 51802U 22017AL  22100.83334491 -.00566807  00000-0 -10684-1 0  9992,2 51802  53.2170 287.3534 0001060  72.3753  14.6022 15.49983081  8159,6794.913000000001,92.904,417.49800000000016,416.057,0.0
51802.0,STARLINK-3557,PAYLOAD,2022-04-10 22:00:00,15.49733862,0.0001171,53.217,286.9563,65.7164,126.542,-0.0041361,-0.00227295,0.0,0 STARLINK-3557,1 51802U 22017AL  22100.91667824 -.00227295  00000-0 -41361-2 0  9992,2 51802  53.2170 286.9563 0001171  65.7164 126.5420 15.49733862  3690,6795.641,92.919,418.302,416.71,0.0
51802.0,STARLINK-3557,PAYLOAD,2022-04-11 04:00:01,15.49822843,0.0001267,53.2171,285.7635,78.5172,69.2337,-0.012388,-0.00646826,0.0,0 STARLINK-3557,1 51802U 22017AL  22101.16668981 -.00646826  00000-0 -12388-1 0  9996,2 51802  53.2171 285.7635 0001267  78.5172  69.2337 15.49822843  8205,6795.380999999999,92.914,418.107,416.385,0.0
51802.0,STARLINK-3557,PAYLOAD,2022-04-11 12:00:00,15.49357647,0.0001377,53.2174,284.1721,68.8826,139.3648,-0.013963,-0.0072033,0.0,0 STARLINK-3557,1 51802U 22017AL  22101.50001157 -.00720330  00000-0 -13963-1 0  9993,2 51802  53.2174 284.1721 0001377  68.8826 139.3648 15.49357647  8251,6796.741,92.942,419.542,417.67,0.0
51802.0,STARLINK-3557,PAYLOAD,2022-04-11 14:00:01,15.49230905,0.0001214,53.2177,283.775,69.4945,243.8019,-0.014066,-0.00722218,0.0,0 STARLINK-3557,1 51802U 22017AL  22101.58334491 -.00722218  00000-0 -14066-1 0  9993,2 51802  53.2177 283.7750 0001214  69.4945 243.8019 15.49230905  3682,6797.111999999999,92.949,419.802,418.152,0.0
51802.0,STARLINK-3557,PAYLOAD,2022-04-11 22:00:00,15.48718948,0.0001091,53.2175,282.1873,80.2506,292.8599,-0.0142669999999999,-0.00719592,0.0,0 STARLINK-3557,1 51802U 22017AL  22101.91667824 -.00719592  00000-0 -14267-1 0  9993,2 51802  53.2175 282.1873 0001091  80.2506 292.8599 15.48718948  3679,6798.61,92.98,421.216,419.733,0.0
51802.0,STARLINK-3557,PAYLOAD,2022-04-12 12:00:00,15.47826532,0.0001188,53.2175,279.4062,64.0319,322.2801,-0.014703,-0.00718758,0.0,0 STARLINK-3557,1 51802U 22017AL  22102.50001157 -.00718758  00000-0 -14703-1 0  9998,2 51802  53.2175 279.4062 0001188  64.0319 322.2801 15.47826532  8416,6801.223000000001,93.034,423.895,422.28,0.0
51802.0,STARLINK-3557,PAYLOAD,2022-04-12 14:00:01,15.47699902,0.000135,53.2176,279.01,60.1809,70.7205,-0.014812,-0.0072075,0.0,0 STARLINK-3557,1 51802U 22017AL  22102.58334491 -.00720750  00000-0 -14812-1 0  9992,2 51802  53.2176 279.0100 0001350  60.1809  70.7205 15.47699902  3695,6801.593000000003,93.041,424.377,422.54,0.0
51802.0,STARLINK-3557,PAYLOAD,2022-04-12 22:00:00,15.47185542,0.0001341999999999,53.2175,277.4257,71.2164,117.6614,-0.014909,-0.0071314,0.0,0 STARLINK-3557,1 51802U 22017AL  22102.91667824 -.00713140  00000-0 -14909-1 0  9990,2 51802  53.2175 277.4257 0001342  71.2164 117.6614 15.47185542  3669,6803.101,93.072,425.879,424.05300000000005,0.0
51802.0,STARLINK-3557,PAYLOAD,2022-04-13 12:00:00,15.46297601,0.0001429,53.2176,274.6513,63.6641,135.1963,-0.015529,-0.00719707,0.0,0 STARLINK-3557,1 51802U 22017AL  22103.50001157 -.00719707  00000-0 -15529-1 0  9991,2 51802  53.2176 274.6513 0001429  63.6641 135.1963 15.46297601  8560,6805.705,93.126,428.543,426.597,0.0
51802.0,STARLINK-3557,PAYLOAD,2022-04-13 14:00:03,15.46170458,0.0001284,53.2178,274.2558,65.1126,238.0067,-0.015631,-0.00721115,0.0,0 STARLINK-3557,1 51802U 22017AL  22103.58336806 -.00721115  00000-0 -15631-1 0  9991,2 51802  53.2178 274.2558 0001284  65.1126 238.0067 15.46170458  3687,6806.078,93.133,428.817,427.069,0.0
51802.0,STARLINK-3557,PAYLOAD,2022-04-13 22:00:00,15.45658283,0.0001128,53.2176,272.6752,74.9751,284.1527,-0.015819,-0.00717261,0.0,0 STARLINK-3557,1 51802U 22017AL  22103.91667824 -.00717261  00000-0 -15819-1 0  9990,2 51802  53.2176 272.6752 0001128  74.9751 284.1527 15.45658283  3681,6807.581999999999,93.164,430.214,428.679,0.0
51802.0,STARLINK-3557,PAYLOAD,2022-04-14 12:00:00,15.44767707,0.0001219,53.2177,269.9073,60.0398,305.8545,-0.016375,-0.00719878,0.0,0 STARLINK-3557,1 51802U 22017AL  22104.50001157 -.00719878  00000-0 -16375-1 0  9991,2 51802  53.2177 269.9073 0001219  60.0398 305.8545 15.44767707  8723,6810.198,93.218,432.893,431.233,0.0
51802.0,STARLINK-3557,PAYLOAD,2022-04-14 14:00:01,15.44640747,0.0001375999999999,53.2176,269.513,53.7918,55.7728,-0.01649,-0.00721668,0.0,0 STARLINK-3557,1 51802U 22017AL  22104.58334491 -.00721668  00000-0 -16490-1 0  9997,2 51802  53.2176 269.5130 0001376  53.7918  55.7728 15.44640747  3670,6810.571,93.226,433.37300000000016,431.499,0.0
